[{"OBJECT_NAME":"SHIYAN-1 (SY-1)","OBJECT_ID":"2004-012A","EPOCH":"2026-03-09T17:40:34.066560","MEAN_MOTION":15.31043463,"ECCENTRICITY":0.00058726,"INCLINATION":97.8764,"RA_OF_ASC_NODE":140.5238,"ARG_OF_PERICENTER":23.6952,"MEAN_ANOMALY":336.4557,"EPHEMERIS_TYPE":0,"CLASSIFICATION_TYPE":"U","NORAD_CAT_ID":28220,"ELEMENT_SET_NO":999,"REV_AT_EPOCH":19586,"BSTAR":0.00054854449,"MEAN_MOTION_DOT":0.00016393,"MEAN_MOTION_DDOT":0},{"OBJECT_NAME":"STARLINK-31283","OBJECT_ID":"2024-044Y","EPOCH":"2026-03-09T22:00:01.999584","MEAN_MOTION":15.27567601,"ECCENTRICITY":0.00013626,"INCLINATION":43.0007,"RA_OF_ASC_NODE":58.8277,"ARG_OF_PERICENTER":256.0116,"MEAN_ANOMALY":70.9001,"EPHEMERIS_TYPE":0,"CLASSIFICATION_TYPE":"U","NORAD_CAT_ID":59174,"ELEMENT_SET_NO":999,"REV_AT_EPOCH":585,"BSTAR":0.002550605,"MEAN_MOTION_DOT":0.00070572,"MEAN_MOTION_DDOT":0}]
